start=new Date('2022-05-30T00:00:00.000Z').valueOf();
sats=[{"COUNTRY_CODE":"US","OBJECT_TYPE":"PAYLOAD","MEAN_MOTION_DDOT":"0.0000000000000","PERIOD":"95.594","REF_FRAME":"TEME","NORAD_CAT_ID":"48278","ELEMENT_SET_NO":"999","BSTAR":"0.00021321000000","EPOCH":"2022-05-29T22:00:00.999936","TLE_LINE2":"2 48278  53.0526 100.7319 0001891  42.6803  71.3084 15.06376634 61691","SITE":"AFETR","GP_ID":"204858501","FILE":"3470937","SEMIMAJOR_AXIS":"6925.420","CENTER_NAME":"EARTH","INCLINATION":"53.0526","OBJECT_NAME":"STARLINK-2543","MEAN_ANOMALY":"71.3084","APOAPSIS":"548.595","RA_OF_ASC_NODE":"100.7319","TIME_SYSTEM":"UTC","PERIAPSIS":"545.976","LAUNCH_DATE":"2021-04-29","MEAN_MOTION_DOT":"0.00002894","DECAY_DATE":null,"OBJECT_ID":"2021-036C","MEAN_ELEMENT_THEORY":"SGP4","RCS_SIZE":"LARGE","ECCENTRICITY":"0.00018910","CLASSIFICATION_TYPE":"U","MEAN_MOTION":"15.06376634","EPHEMERIS_TYPE":"0","ARG_OF_PERICENTER":"42.6803","TLE_LINE1":"1 48278U 21036C   22149.91667824  .00002894  00000-0  21321-3 0  9997","REV_AT_EPOCH":"6169"},{"CLASSIFICATION_TYPE":"U","MEAN_MOTION":"15.06366208","EPHEMERIS_TYPE":"0","ARG_OF_PERICENTER":"43.6004","TLE_LINE1":"1 48279U 21036D   22149.91667824 -.00004986  00000-0 -31633-3 0  9991","REV_AT_EPOCH":"130","PERIAPSIS":"546.198","TIME_SYSTEM":"UTC","LAUNCH_DATE":"2021-04-29","MEAN_MOTION_DOT":"-0.00004986","DECAY_DATE":null,"OBJECT_ID":"2021-036D","RCS_SIZE":"LARGE","ECCENTRICITY":"0.00016160","MEAN_ELEMENT_THEORY":"SGP4","CENTER_NAME":"EARTH","SEMIMAJOR_AXIS":"6925.452","INCLINATION":"53.0548","APOAPSIS":"548.436","MEAN_ANOMALY":"110.4379","OBJECT_NAME":"STARLINK-2580","RA_OF_ASC_NODE":"100.6704","REF_FRAME":"TEME","NORAD_CAT_ID":"48279","OBJECT_TYPE":"PAYLOAD","COUNTRY_CODE":"US","PERIOD":"95.594","MEAN_MOTION_DDOT":"0.0000000000000","ELEMENT_SET_NO":"999","EPOCH":"2022-05-29T22:00:00.999936","BSTAR":"-0.00031633000000","TLE_LINE2":"2 48279  53.0548 100.6704 0001616  43.6004 110.4379 15.06366208  1302","GP_ID":"204890563","FILE":"3471362","SITE":"AFETR"},{"OBJECT_NAME":"STARLINK-2565","MEAN_ANOMALY":"297.0951","APOAPSIS":"548.344","RA_OF_ASC_NODE":"171.4078","CENTER_NAME":"EARTH","SEMIMAJOR_AXIS":"6925.369","INCLINATION":"53.0546","EPOCH":"2022-05-29T17:58:48.933408","BSTAR":"-0.00007845600000","TLE_LINE2":"2 48280  53.0546 171.4078 0001602  63.0201 297.0951 15.06393270 60113","SITE":"AFETR","FILE":"3471362","GP_ID":"204890810","COUNTRY_CODE":"US","OBJECT_TYPE":"PAYLOAD","PERIOD":"95.593","MEAN_MOTION_DDOT":"0.0000000000000","REF_FRAME":"TEME","NORAD_CAT_ID":"48280","ELEMENT_SET_NO":"999","ARG_OF_PERICENTER":"63.0201","EPHEMERIS_TYPE":"0","REV_AT_EPOCH":"6011","TLE_LINE1":"1 48280U 21036E   22149.74917747 -.00001450  00000-0 -78456-4 0  9994","CLASSIFICATION_TYPE":"U","MEAN_MOTION":"15.06393270","MEAN_MOTION_DOT":"-0.00001450","DECAY_DATE":null,"OBJECT_ID":"2021-036E","MEAN_ELEMENT_THEORY":"SGP4","ECCENTRICITY":"0.00016020","RCS_SIZE":"LARGE","TIME_SYSTEM":"UTC","PERIAPSIS":"546.125","LAUNCH_DATE":"2021-04-29"},{"MEAN_MOTION_DOT":"0.00001359","DECAY_DATE":null,"OBJECT_ID":"2021-036F","MEAN_ELEMENT_THEORY":"SGP4","RCS_SIZE":"LARGE","ECCENTRICITY":"0.00019060","TIME_SYSTEM":"UTC","PERIAPSIS":"545.903","LAUNCH_DATE":"2021-04-29","EPHEMERIS_TYPE":"0","ARG_OF_PERICENTER":"51.2946","TLE_LINE1":"1 48281U 21036F   22149.69572398  .00001359  00000-0  11012-3 0  9998","REV_AT_EPOCH":"6038","CLASSIFICATION_TYPE":"U","MEAN_MOTION":"15.06397049","BSTAR":"0.00011012000000","EPOCH":"2022-05-29T16:41:50.551872","TLE_LINE2":"2 48281  53.0535 151.6562 0001906  51.2946 308.8213 15.06397049 60381","SITE":"AFETR","GP_ID":"204889563","FILE":"3471362","COUNTRY_CODE":"US","OBJECT_TYPE":"PAYLOAD","PERIOD":"95.592","MEAN_MOTION_DDOT":"0.0000000000000","NORAD_CAT_ID":"48281","REF_FRAME":"TEME","ELEMENT_SET_NO":"999","MEAN_ANOMALY":"308.8213","OBJECT_NAME":"STARLINK-2520","APOAPSIS":"548.543","RA_OF_ASC_NODE":"151.6562","CENTER_NAME":"EARTH","SEMIMAJOR_AXIS":"6925.358","INCLINATION":"53.0535"},{"EPHEMERIS_TYPE":"0","ARG_OF_PERICENTER":"54.3024","TLE_LINE1":"1 48282U 21036G   22149.52018094 -.00000139  00000-0  95862-5 0  9992","REV_AT_EPOCH":"6029","CLASSIFICATION_TYPE":"U","MEAN_MOTION":"15.06404004","MEAN_MOTION_DOT":"-0.00000139","DECAY_DATE":null,"OBJECT_ID":"2021-036G","RCS_SIZE":"LARGE","ECCENTRICITY":"0.00016300","MEAN_ELEMENT_THEORY":"SGP4","PERIAPSIS":"546.072","TIME_SYSTEM":"UTC","LAUNCH_DATE":"2021-04-29","APOAPSIS":"548.330","OBJECT_NAME":"STARLINK-2558","MEAN_ANOMALY":"305.8117","RA_OF_ASC_NODE":"157.4474","CENTER_NAME":"EARTH","SEMIMAJOR_AXIS":"6925.336","INCLINATION":"53.0529","BSTAR":"0.00000958620000","EPOCH":"2022-05-29T12:29:03.633216","TLE_LINE2":"2 48282  53.0529 157.4474 0001630  54.3024 305.8117 15.06404004 60296","GP_ID":"204854447","FILE":"3470904","SITE":"AFETR","NORAD_CAT_ID":"48282","REF_FRAME":"TEME","COUNTRY_CODE":"US","MEAN_MOTION_DDOT":"0.0000000000000","OBJECT_TYPE":"PAYLOAD","PERIOD":"95.592","ELEMENT_SET_NO":"999"},{"PERIAPSIS":"545.809","TIME_SYSTEM":"UTC","LAUNCH_DATE":"2021-04-29","MEAN_MOTION_DOT":"-0.00000565","DECAY_DATE":null,"OBJECT_ID":"2021-036H","RCS_SIZE":"MEDIUM","ECCENTRICITY":"0.00020400","MEAN_ELEMENT_THEORY":"SGP4","CLASSIFICATION_TYPE":"U","MEAN_MOTION":"15.06397323","ARG_OF_PERICENTER":"57.2956","EPHEMERIS_TYPE":"0","TLE_LINE1":"1 48283U 21036H   22149.71554236 -.00000565  00000-0 -19021-4 0  9993","REV_AT_EPOCH":"6032","NORAD_CAT_ID":"48283","REF_FRAME":"TEME","OBJECT_TYPE":"PAYLOAD","COUNTRY_CODE":"US","MEAN_MOTION_DDOT":"0.0000000000000","PERIOD":"95.592","ELEMENT_SET_NO":"999","EPOCH":"2022-05-29T17:10:22.859904","BSTAR":"-0.00001902100000","TLE_LINE2":"2 48283  53.0544 156.5741 0002040  57.2956 302.8229 15.06397323 60323","GP_ID":"204890063","FILE":"3471362","SITE":"AFETR","SEMIMAJOR_AXIS":"6925.357","CENTER_NAME":"EARTH","INCLINATION":"53.0544","APOAPSIS":"548.635","MEAN_ANOMALY":"302.8229","OBJECT_NAME":"STARLINK-2516","RA_OF_ASC_NODE":"156.5741"},{"ARG_OF_PERICENTER":"54.4528","EPHEMERIS_TYPE":"0","TLE_LINE1":"1 48284U 21036J   22149.71187501  .00010833  00000-0  74519-3 0  9990","REV_AT_EPOCH":"6031","CLASSIFICATION_TYPE":"U","MEAN_MOTION":"15.06390477","MEAN_MOTION_DOT":"0.00010833","DECAY_DATE":null,"OBJECT_ID":"2021-036J","MEAN_ELEMENT_THEORY":"SGP4","RCS_SIZE":"LARGE","ECCENTRICITY":"0.00016980","TIME_SYSTEM":"UTC","PERIAPSIS":"546.067","LAUNCH_DATE":"2021-04-29","OBJECT_NAME":"STARLINK-2564","MEAN_ANOMALY":"305.6619","APOAPSIS":"548.419","RA_OF_ASC_NODE":"156.5718","SEMIMAJOR_AXIS":"6925.378","CENTER_NAME":"EARTH","INCLINATION":"53.0529","BSTAR":"0.00074519000000","EPOCH":"2022-05-29T17:05:06.000864","TLE_LINE2":"2 48284  53.0529 156.5718 0001698  54.4528 305.6619 15.06390477 60319","SITE":"AFETR","GP_ID":"204890310","FILE":"3471362","OBJECT_TYPE":"PAYLOAD","COUNTRY_CODE":"US","MEAN_MOTION_DDOT":"0.0000000000000","PERIOD":"95.593","NORAD_CAT_ID":"48284","REF_FRAME":"TEME","ELEMENT_SET_NO":"999"},{"EPHEMERIS_TYPE":"0","ARG_OF_PERICENTER":"57.3818","TLE_LINE1":"1 48285U 21036K   22149.70816815  .00000745  00000-0  68894-4 0  9998","REV_AT_EPOCH":"6031","CLASSIFICATION_TYPE":"U","MEAN_MOTION":"15.06397853","MEAN_MOTION_DOT":"0.00000745","DECAY_DATE":null,"OBJECT_ID":"2021-036K","MEAN_ELEMENT_THEORY":"SGP4","ECCENTRICITY":"0.00016830","RCS_SIZE":"LARGE","TIME_SYSTEM":"UTC","PERIAPSIS":"546.055","LAUNCH_DATE":"2021-04-29","OBJECT_NAME":"STARLINK-2548","MEAN_ANOMALY":"302.7334","APOAPSIS":"548.386","RA_OF_ASC_NODE":"156.6045","SEMIMAJOR_AXIS":"6925.355","CENTER_NAME":"EARTH","INCLINATION":"53.0551","BSTAR":"0.00006889400000","EPOCH":"2022-05-29T16:59:45.728160","TLE_LINE2":"2 48285  53.0551 156.6045 0001683  57.3818 302.7334 15.06397853 60314","SITE":"AFETR","GP_ID":"204889063","FILE":"3471362","MEAN_MOTION_DDOT":"0.0000000000000","COUNTRY_CODE":"US","OBJECT_TYPE":"PAYLOAD","PERIOD":"95.592","NORAD_CAT_ID":"48285","REF_FRAME":"TEME","ELEMENT_SET_NO":"999"},{"TLE_LINE1":"1 48286U 21036L   22149.50543649 -.00000449  00000-0 -11208-4 0  9999","REV_AT_EPOCH":"6028","EPHEMERIS_TYPE":"0","ARG_OF_PERICENTER":"50.1989","MEAN_MOTION":"15.06401338","CLASSIFICATION_TYPE":"U","MEAN_ELEMENT_THEORY":"SGP4","RCS_SIZE":"LARGE","ECCENTRICITY":"0.00016550","OBJECT_ID":"2021-036L","DECAY_DATE":null,"MEAN_MOTION_DOT":"-0.00000449","LAUNCH_DATE":"2021-04-29","TIME_SYSTEM":"UTC","PERIAPSIS":"546.063","RA_OF_ASC_NODE":"157.5202","OBJECT_NAME":"STARLINK-2547","MEAN_ANOMALY":"309.9146","APOAPSIS":"548.356","INCLINATION":"53.0537","CENTER_NAME":"EARTH","SEMIMAJOR_AXIS":"6925.344","SITE":"AFETR","GP_ID":"204854948","FILE":"3470904","TLE_LINE2":"2 48286  53.0537 157.5202 0001655  50.1989 309.9146 15.06401338 60283","EPOCH":"2022-05-29T12:07:49.712736","BSTAR":"-0.00001120800000","ELEMENT_SET_NO":"999","OBJECT_TYPE":"PAYLOAD","COUNTRY_CODE":"US","PERIOD":"95.592","MEAN_MOTION_DDOT":"0.0000000000000","NORAD_CAT_ID":"48286","REF_FRAME":"TEME"},{"MEAN_ELEMENT_THEORY":"SGP4","RCS_SIZE":"LARGE","ECCENTRICITY":"0.00019430","OBJECT_ID":"2021-036M","DECAY_DATE":null,"MEAN_MOTION_DOT":"-0.00000846","LAUNCH_DATE":"2021-04-29","TIME_SYSTEM":"UTC","PERIAPSIS":"545.873","TLE_LINE1":"1 48287U 21036M   22149.43540556 -.00000846  00000-0 -37862-4 0  9991","REV_AT_EPOCH":"6027","EPHEMERIS_TYPE":"0","ARG_OF_PERICENTER":"48.6478","MEAN_MOTION":"15.06398483","CLASSIFICATION_TYPE":"U","SITE":"AFETR","FILE":"3470904","GP_ID":"204853702","TLE_LINE2":"2 48287  53.0553 157.8205 0001943  48.6478 311.4677 15.06398483 60275","EPOCH":"2022-05-29T10:26:59.040384","BSTAR":"-0.00003786200000","ELEMENT_SET_NO":"999","COUNTRY_CODE":"US","PERIOD":"95.592","OBJECT_TYPE":"PAYLOAD","MEAN_MOTION_DDOT":"0.0000000000000","NORAD_CAT_ID":"48287","REF_FRAME":"TEME","RA_OF_ASC_NODE":"157.8205","OBJECT_NAME":"STARLINK-2566","MEAN_ANOMALY":"311.4677","APOAPSIS":"548.564","INCLINATION":"53.0553","CENTER_NAME":"EARTH","SEMIMAJOR_AXIS":"6925.353"}];
